{"type": "FeatureCollection", "features": [ {"type": "Feature", "properties": {"norad_id": 66897, "name": "STARLINK-36079", "group": "last-30-days", "lat": -37.23663949555038, "lon": 11.057944250405754, "alt_km": 337.86141119764034, "timestamp": "2025-12-18T07:01:53.342373+00:00", "meta": {"OBJECT_NAME": "STARLINK-36079", "OBJECT_ID": "2025-283V", "EPOCH": "2025-12-17T22:00:01.999584", "MEAN_MOTION": 15.8026624, "ECCENTRICITY": 7.436e-05, "INCLINATION": 53.1544, "RA_OF_ASC_NODE": 47.688, "ARG_OF_PERICENTER": 85.2949, "MEAN_ANOMALY": 244.5515, "EPHEMERIS_TYPE": 0, "CLASSIFICATION_TYPE": "U", "NORAD_CAT_ID": 66897, "ELEMENT_SET_NO": 999, "REV_AT_EPOCH": 326, "BSTAR": -0.008869845, "MEAN_MOTION_DOT": -0.01501187, "MEAN_MOTION_DDOT": 0}, "tle": {"line1": "1 66897U 25283V   25351.91668981 -.01501187  00000+0 -88698-2 0  9995", "line2": "2 66897  53.1544  47.6880 0000743  85.2949 244.5515 15.80266240  3265"}}, "geometry": {"type": "Point", "coordinates": [11.057944250405754, -37.23663949555038]}}, {"type": "Feature", "properties": {"norad_id": 66898, "name": "STARLINK-36065", "group": "last-30-days", "lat": -35.5919209172034, "lon": 13.33871079253731, "alt_km": 337.88507104027394, "timestamp": "2025-12-18T07:01:53.342383+00:00", "meta": {"OBJECT_NAME": "STARLINK-36065", "OBJECT_ID": "2025-283W", "EPOCH": "2025-12-17T22:00:01.999584", "MEAN_MOTION": 15.80203738, "ECCENTRICITY": 7.258e-05, "INCLINATION": 53.154, "RA_OF_ASC_NODE": 47.682, "ARG_OF_PERICENTER": 76.0642, "MEAN_ANOMALY": 256.3455, "EPHEMERIS_TYPE": 0, "CLASSIFICATION_TYPE": "U", "NORAD_CAT_ID": 66898, "ELEMENT_SET_NO": 999, "REV_AT_EPOCH": 326, "BSTAR": -0.0089632781, "MEAN_MOTION_DOT": -0.01511219, "MEAN_MOTION_DDOT": 0}, "tle": {"line1": "1 66898U 25283W   25351.91668981 -.01511219  00000+0 -89633-2 0  9993", "line2": "2 66898  53.1540  47.6820 0000725  76.0642 256.3455 15.80203738  3261"}}, "geometry": {"type": "Point", "coordinates": [13.33871079253731, -35.5919209172034]}}, {"type": "Feature", "properties": {"norad_id": 66899, "name": "STARLINK-36064", "group": "last-30-days", "lat": -33.96654828728779, "lon": 15.451088520060058, "alt_km": 337.9838666744372, "timestamp": "2025-12-18T07:01:53.342393+00:00", "meta": {"OBJECT_NAME": "STARLINK-36064", "OBJECT_ID": "2025-283X", "EPOCH": "2025-12-17T22:00:01.999584", "MEAN_MOTION": 15.8015861, "ECCENTRICITY": 7.124e-05, "INCLINATION": 53.154, "RA_OF_ASC_NODE": 47.677, "ARG_OF_PERICENTER": 79.4444, "MEAN_ANOMALY": 255.4229, "EPHEMERIS_TYPE": 0, "CLASSIFICATION_TYPE": "U", "NORAD_CAT_ID": 66899, "ELEMENT_SET_NO": 999, "REV_AT_EPOCH": 320, "BSTAR": -0.0091240509, "MEAN_MOTION_DOT": -0.01532168, "MEAN_MOTION_DDOT": 0}, "tle": {"line1": "1 66899U 25283X   25351.91668981 -.01532168  00000+0 -91241-2 0  9998", "line2": "2 66899  53.1540  47.6770 0000712  79.4444 255.4229 15.80158610  3200"}}, "geometry": {"type": "Point", "coordinates": [15.451088520060058, -33.96654828728779]}}, {"type": "Feature", "properties": {"norad_id": 66900, "name": "STARLINK-36074", "group": "last-30-days", "lat": -32.26652289216044, "lon": 17.530262465941696, "alt_km": 338.2132051541357, "timestamp": "2025-12-18T07:01:53.342403+00:00", "meta": {"OBJECT_NAME": "STARLINK-36074", "OBJECT_ID": "2025-283Y", "EPOCH": "2025-12-17T22:00:01.999584", "MEAN_MOTION": 15.80109044, "ECCENTRICITY": 8.569e-05, "INCLINATION": 53.1541, "RA_OF_ASC_NODE": 47.6715, "ARG_OF_PERICENTER": 84.6575, "MEAN_ANOMALY": 252.7428, "EPHEMERIS_TYPE": 0, "CLASSIFICATION_TYPE": "U", "NORAD_CAT_ID": 66900, "ELEMENT_SET_NO": 999, "REV_AT_EPOCH": 326, "BSTAR": -0.0094115654, "MEAN_MOTION_DOT": -0.01571275, "MEAN_MOTION_DDOT": 0}, "tle": {"line1": "1 66900U 25283Y   25351.91668981 -.01571275  00000+0 -94116-2 0  9997", "line2": "2 66900  53.1541  47.6715 0000856  84.6575 252.7428 15.80109044  3269"}}, "geometry": {"type": "Point", "coordinates": [17.530262465941696, -32.26652289216044]}}, {"type": "Feature", "properties": {"norad_id": 66901, "name": "STARLINK-36043", "group": "last-30-days", "lat": -30.65289530038031, "lon": 19.397998544412957, "alt_km": 338.1832039703959, "timestamp": "2025-12-18T07:01:53.342412+00:00", "meta": {"OBJECT_NAME": "STARLINK-36043", "OBJECT_ID": "2025-283Z", "EPOCH": "2025-12-17T22:00:01.999584", "MEAN_MOTION": 15.80078317, "ECCENTRICITY": 6.718e-05, "INCLINATION": 53.1542, "RA_OF_ASC_NODE": 47.6668, "ARG_OF_PERICENTER": 83.3653, "MEAN_ANOMALY": 256.3687, "EPHEMERIS_TYPE": 0, "CLASSIFICATION_TYPE": "U", "NORAD_CAT_ID": 66901, "ELEMENT_SET_NO": 999, "REV_AT_EPOCH": 326, "BSTAR": -0.0096455219, "MEAN_MOTION_DOT": -0.01603133, "MEAN_MOTION_DDOT": 0}, "tle": {"line1": "1 66901U 25283Z   25351.91668981 -.01603133  00000+0 -96455-2 0  9995", "line2": "2 66901  53.1542  47.6668 0000671  83.3653 256.3687 15.80078317  3261"}}, "geometry": {"type": "Point", "coordinates": [19.397998544412957, -30.65289530038031]}}, {"type": "Feature", "properties": {"norad_id": 66902, "name": "STARLINK-35983", "group": "last-30-days", "lat": -28.85222240557222, "lon": 21.376503775484093, "alt_km": 338.32115876972694, "timestamp": "2025-12-18T07:01:53.342422+00:00", "meta": {"OBJECT_NAME": "STARLINK-35983", "OBJECT_ID": "2025-283AA", "EPOCH": "2025-12-17T22:00:01.999584", "MEAN_MOTION": 15.80002552, "ECCENTRICITY": 8.17e-05, "INCLINATION": 53.1541, "RA_OF_ASC_NODE": 47.6616, "ARG_OF_PERICENTER": 73.7151, "MEAN_ANOMALY": 268.6417, "EPHEMERIS_TYPE": 0, "CLASSIFICATION_TYPE": "U", "NORAD_CAT_ID": 66902, "ELEMENT_SET_NO": 999, "REV_AT_EPOCH": 326, "BSTAR": -0.0099328707, "MEAN_MOTION_DOT": -0.01639608, "MEAN_MOTION_DDOT": 0}, "tle": {"line1": "1 66902U 25283AA  25351.91668981 -.01639608  00000+0 -99329-2 0  9995", "line2": "2 66902  53.1541  47.6616 0000817  73.7151 268.6417 15.80002552  3267"}}, "geometry": {"type": "Point", "coordinates": [21.376503775484093, -28.85222240557222]}}, {"type": "Feature", "properties": {"norad_id": 66903, "name": "STARLINK-36077", "group": "last-30-days", "lat": -27.216823423656063, "lon": 23.089649156759826, "alt_km": 338.4678343629321, "timestamp": "2025-12-18T07:01:53.342431+00:00", "meta": {"OBJECT_NAME": "STARLINK-36077", "OBJECT_ID": "2025-283AB", "EPOCH": "2025-12-17T22:00:01.999584", "MEAN_MOTION": 15.79949798, "ECCENTRICITY": 7.42e-05, "INCLINATION": 53.1545, "RA_OF_ASC_NODE": 47.6569, "ARG_OF_PERICENTER": 88.2162, "MEAN_ANOMALY": 256.4477, "EPHEMERIS_TYPE": 0, "CLASSIFICATION_TYPE": "U", "NORAD_CAT_ID": 66903, "ELEMENT_SET_NO": 999, "REV_AT_EPOCH": 326, "BSTAR": -0.010009608, "MEAN_MOTION_DOT": -0.01647019, "MEAN_MOTION_DDOT": 0}, "tle": {"line1": "1 66903U 25283AB  25351.91668981 -.01647019  00000+0 -10010-1 0  9990", "line2": "2 66903  53.1545  47.6569 0000742  88.2162 256.4477 15.79949798  3260"}}, "geometry": {"type": "Point", "coordinates": [23.089649156759826, -27.216823423656063]}}, {"type": "Feature", "properties": {"norad_id": 66904, "name": "STARLINK-36059", "group": "last-30-days", "lat": -25.525245178625646, "lon": 24.78676587421729, "alt_km": 338.45761901938477, "timestamp": "2025-12-18T07:01:53.342441+00:00", "meta": {"OBJECT_NAME": "STARLINK-36059", "OBJECT_ID": "2025-283AC", "EPOCH": "2025-12-17T22:00:01.999584", "MEAN_MOTION": 15.79889966, "ECCENTRICITY": 7.814e-05, "INCLINATION": 53.1541, "RA_OF_ASC_NODE": 47.6515, "ARG_OF_PERICENTER": 78.4488, "MEAN_ANOMALY": 268.5859, "EPHEMERIS_TYPE": 0, "CLASSIFICATION_TYPE": "U", "NORAD_CAT_ID": 66904, "ELEMENT_SET_NO": 999, "REV_AT_EPOCH": 326, "BSTAR": -0.010132138, "MEAN_MOTION_DOT": -0.01660482, "MEAN_MOTION_DDOT": 0}, "tle": {"line1": "1 66904U 25283AC  25351.91668981 -.01660482  00000+0 -10132-1 0  9995", "line2": "2 66904  53.1541  47.6515 0000781  78.4488 268.5859 15.79889966  3261"}}, "geometry": {"type": "Point", "coordinates": [24.78676587421729, -25.525245178625646]}}, {"type": "Feature", "properties": {"norad_id": 66905, "name": "STARLINK-36075", "group": "last-30-days", "lat": -23.92423125814334, "lon": 26.33364225207983, "alt_km": 338.3857198010619, "timestamp": "2025-12-18T07:01:53.342454+00:00", "meta": {"OBJECT_NAME": "STARLINK-36075", "OBJECT_ID": "2025-283AD", "EPOCH": "2025-12-17T22:00:01.999584", "MEAN_MOTION": 15.79855506, "ECCENTRICITY": 8.03e-05, "INCLINATION": 53.1543, "RA_OF_ASC_NODE": 47.6473, "ARG_OF_PERICENTER": 72.9195, "MEAN_ANOMALY": 276.302, "EPHEMERIS_TYPE": 0, "CLASSIFICATION_TYPE": "U", "NORAD_CAT_ID": 66905, "ELEMENT_SET_NO": 999, "REV_AT_EPOCH": 326, "BSTAR": -0.010202708, "MEAN_MOTION_DOT": -0.01702592, "MEAN_MOTION_DDOT": 0}, "tle": {"line1": "1 66905U 25283AD  25351.91668981 -.01702592  00000+0 -10203-1 0  9994", "line2": "2 66905  53.1543  47.6473 0000803  72.9195 276.3020 15.79855506  3266"}}, "geometry": {"type": "Point", "coordinates": [26.33364225207983, -23.92423125814334]}}, {"type": "Feature", "properties": {"norad_id": 66906, "name": "1998-067XS", "group": "last-30-days", "lat": 42.456864917981875, "lon": -111.58936473917194, "alt_km": 409.0722238247772, "timestamp": "2025-12-18T07:01:53.342465+00:00", "meta": {"OBJECT_NAME": "1998-067XS", "OBJECT_ID": "1998-067XS", "EPOCH": "2025-12-17T16:35:43.301760", "MEAN_MOTION": 15.50834133, "ECCENTRICITY": 0.0003138, "INCLINATION": 51.6309, "RA_OF_ASC_NODE": 117.8563, "ARG_OF_PERICENTER": 226.0893, "MEAN_ANOMALY": 133.9837, "EPHEMERIS_TYPE": 0, "CLASSIFICATION_TYPE": "U", "NORAD_CAT_ID": 66906, "ELEMENT_SET_NO": 999, "REV_AT_EPOCH": 238, "BSTAR": 0.00042869394, "MEAN_MOTION_DOT": 0.00024822, "MEAN_MOTION_DDOT": 0}, "tle": {"line1": "1 66906U 98067XS  25351.69147340  .00024822  00000+0  42869-3 0  9996", "line2": "2 66906  51.6309 117.8563 0003138 226.0893 133.9837 15.50834133  2389"}}, "geometry": {"type": "Point", "coordinates": [-111.58936473917194, 42.456864917981875]}}]}